{"type": "FeatureCollection", "features": [ {"type": "Feature", "properties": {"norad_id": 66572, "name": "STARLINK-35870", "group": "last-30-days", "lat": 42.75724592301339, "lon": -104.03127153807135, "alt_km": 344.6620295437451, "timestamp": "2025-12-03T22:42:31.476619+00:00", "meta": {"OBJECT_NAME": "STARLINK-35870", "OBJECT_ID": "2025-268R", "EPOCH": "2025-12-03T12:00:02.998944", "MEAN_MOTION": 15.75109554, "ECCENTRICITY": 0.0002162, "INCLINATION": 42.999, "RA_OF_ASC_NODE": 175.7887, "ARG_OF_PERICENTER": 263.892, "MEAN_ANOMALY": 169.4283, "EPHEMERIS_TYPE": 0, "CLASSIFICATION_TYPE": "U", "NORAD_CAT_ID": 66572, "ELEMENT_SET_NO": 999, "REV_AT_EPOCH": 318, "BSTAR": -0.014384, "MEAN_MOTION_DOT": -0.01924524, "MEAN_MOTION_DDOT": 0}, "tle": {"line1": "1 66572U 25268R   25337.50003471 -.01924524  00000+0 -14384-1 0  9998", "line2": "2 66572  42.9990 175.7887 0002162 263.8920 169.4283 15.75109554  3182"}}, "geometry": {"type": "Point", "coordinates": [-104.03127153807135, 42.75724592301339]}}, {"type": "Feature", "properties": {"norad_id": 66573, "name": "STARLINK-35650", "group": "last-30-days", "lat": 42.8897464906025, "lon": -101.43094693647963, "alt_km": 344.80649996715056, "timestamp": "2025-12-03T22:42:31.476628+00:00", "meta": {"OBJECT_NAME": "STARLINK-35650", "OBJECT_ID": "2025-268S", "EPOCH": "2025-12-03T12:00:02.998944", "MEAN_MOTION": 15.75165361, "ECCENTRICITY": 0.0002403, "INCLINATION": 42.9992, "RA_OF_ASC_NODE": 175.783, "ARG_OF_PERICENTER": 266.9748, "MEAN_ANOMALY": 168.2108, "EPHEMERIS_TYPE": 0, "CLASSIFICATION_TYPE": "U", "NORAD_CAT_ID": 66573, "ELEMENT_SET_NO": 999, "REV_AT_EPOCH": 318, "BSTAR": -0.014757, "MEAN_MOTION_DOT": -0.02013628, "MEAN_MOTION_DDOT": 0}, "tle": {"line1": "1 66573U 25268S   25337.50003471 -.02013628  00000+0 -14757-1 0  9998", "line2": "2 66573  42.9992 175.7830 0002403 266.9748 168.2108 15.75165361  3184"}}, "geometry": {"type": "Point", "coordinates": [-101.43094693647963, 42.8897464906025]}}, {"type": "Feature", "properties": {"norad_id": 66574, "name": "STARLINK-35812", "group": "last-30-days", "lat": 42.962624170428576, "lon": -98.80333151861853, "alt_km": 344.1687121134146, "timestamp": "2025-12-03T22:42:31.476638+00:00", "meta": {"OBJECT_NAME": "STARLINK-35812", "OBJECT_ID": "2025-268T", "EPOCH": "2025-12-03T12:00:02.998944", "MEAN_MOTION": 15.75088817, "ECCENTRICITY": 0.000152, "INCLINATION": 42.9988, "RA_OF_ASC_NODE": 175.7773, "ARG_OF_PERICENTER": 265.9847, "MEAN_ANOMALY": 171.1899, "EPHEMERIS_TYPE": 0, "CLASSIFICATION_TYPE": "U", "NORAD_CAT_ID": 66574, "ELEMENT_SET_NO": 999, "REV_AT_EPOCH": 318, "BSTAR": -0.014208, "MEAN_MOTION_DOT": -0.01902068, "MEAN_MOTION_DDOT": 0}, "tle": {"line1": "1 66574U 25268T   25337.50003471 -.01902068  00000+0 -14208-1 0  9994", "line2": "2 66574  42.9988 175.7773 0001520 265.9847 171.1899 15.75088817  3184"}}, "geometry": {"type": "Point", "coordinates": [-98.80333151861853, 42.962624170428576]}}, {"type": "Feature", "properties": {"norad_id": 66575, "name": "STARLINK-35810", "group": "last-30-days", "lat": 42.97568186776977, "lon": -96.19235062845969, "alt_km": 344.26049838526706, "timestamp": "2025-12-03T22:42:31.476647+00:00", "meta": {"OBJECT_NAME": "STARLINK-35810", "OBJECT_ID": "2025-268U", "EPOCH": "2025-12-03T12:00:02.998944", "MEAN_MOTION": 15.75062725, "ECCENTRICITY": 0.0001748, "INCLINATION": 42.9989, "RA_OF_ASC_NODE": 175.7727, "ARG_OF_PERICENTER": 266.9432, "MEAN_ANOMALY": 172.1463, "EPHEMERIS_TYPE": 0, "CLASSIFICATION_TYPE": "U", "NORAD_CAT_ID": 66575, "ELEMENT_SET_NO": 999, "REV_AT_EPOCH": 318, "BSTAR": -0.013855, "MEAN_MOTION_DOT": -0.01859297, "MEAN_MOTION_DDOT": 0}, "tle": {"line1": "1 66575U 25268U   25337.50003471 -.01859297  00000+0 -13855-1 0  9997", "line2": "2 66575  42.9989 175.7727 0001748 266.9432 172.1463 15.75062725  3186"}}, "geometry": {"type": "Point", "coordinates": [-96.19235062845969, 42.97568186776977]}}, {"type": "Feature", "properties": {"norad_id": 66576, "name": "STARLINK-35814", "group": "last-30-days", "lat": 42.928758390235934, "lon": -93.57478313678591, "alt_km": 344.1736326302689, "timestamp": "2025-12-03T22:42:31.476656+00:00", "meta": {"OBJECT_NAME": "STARLINK-35814", "OBJECT_ID": "2025-268V", "EPOCH": "2025-12-03T12:00:02.998944", "MEAN_MOTION": 15.75068261, "ECCENTRICITY": 0.0001607, "INCLINATION": 42.9988, "RA_OF_ASC_NODE": 175.7678, "ARG_OF_PERICENTER": 265.6803, "MEAN_ANOMALY": 175.3257, "EPHEMERIS_TYPE": 0, "CLASSIFICATION_TYPE": "U", "NORAD_CAT_ID": 66576, "ELEMENT_SET_NO": 999, "REV_AT_EPOCH": 318, "BSTAR": -0.013917, "MEAN_MOTION_DOT": -0.01866857, "MEAN_MOTION_DDOT": 0}, "tle": {"line1": "1 66576U 25268V   25337.50003471 -.01866857  00000+0 -13917-1 0  9997", "line2": "2 66576  42.9988 175.7678 0001607 265.6803 175.3257 15.75068261  3180"}}, "geometry": {"type": "Point", "coordinates": [-93.57478313678591, 42.928758390235934]}}, {"type": "Feature", "properties": {"norad_id": 66577, "name": "STARLINK-35815", "group": "last-30-days", "lat": 42.822592372476976, "lon": -90.97294329942085, "alt_km": 343.94946938101566, "timestamp": "2025-12-03T22:42:31.476666+00:00", "meta": {"OBJECT_NAME": "STARLINK-35815", "OBJECT_ID": "2025-268W", "EPOCH": "2025-12-03T12:00:02.998944", "MEAN_MOTION": 15.75049436, "ECCENTRICITY": 0.0001354, "INCLINATION": 42.9987, "RA_OF_ASC_NODE": 175.763, "ARG_OF_PERICENTER": 257.6569, "MEAN_ANOMALY": 185.2739, "EPHEMERIS_TYPE": 0, "CLASSIFICATION_TYPE": "U", "NORAD_CAT_ID": 66577, "ELEMENT_SET_NO": 999, "REV_AT_EPOCH": 318, "BSTAR": -0.013741, "MEAN_MOTION_DOT": -0.01844712, "MEAN_MOTION_DDOT": 0}, "tle": {"line1": "1 66577U 25268W   25337.50003471 -.01844712  00000+0 -13741-1 0  9999", "line2": "2 66577  42.9987 175.7630 0001354 257.6569 185.2739 15.75049436  3185"}}, "geometry": {"type": "Point", "coordinates": [-90.97294329942085, 42.822592372476976]}}, {"type": "Feature", "properties": {"norad_id": 66578, "name": "STARLINK-35743", "group": "last-30-days", "lat": 42.65692769849685, "lon": -88.37297405285938, "alt_km": 343.99282695471993, "timestamp": "2025-12-03T22:42:31.476675+00:00", "meta": {"OBJECT_NAME": "STARLINK-35743", "OBJECT_ID": "2025-268X", "EPOCH": "2025-12-03T12:00:02.998944", "MEAN_MOTION": 15.75060508, "ECCENTRICITY": 0.0001359, "INCLINATION": 42.9987, "RA_OF_ASC_NODE": 175.7582, "ARG_OF_PERICENTER": 259.4665, "MEAN_ANOMALY": 185.3761, "EPHEMERIS_TYPE": 0, "CLASSIFICATION_TYPE": "U", "NORAD_CAT_ID": 66578, "ELEMENT_SET_NO": 999, "REV_AT_EPOCH": 318, "BSTAR": -0.013851, "MEAN_MOTION_DOT": -0.01858305, "MEAN_MOTION_DDOT": 0}, "tle": {"line1": "1 66578U 25268X   25337.50003471 -.01858305  00000+0 -13851-1 0  9995", "line2": "2 66578  42.9987 175.7582 0001359 259.4665 185.3761 15.75060508  3183"}}, "geometry": {"type": "Point", "coordinates": [-88.37297405285938, 42.65692769849685]}}, {"type": "Feature", "properties": {"norad_id": 66579, "name": "STARLINK-35868", "group": "last-30-days", "lat": 42.432616559507295, "lon": -85.78857719485235, "alt_km": 344.4285195919638, "timestamp": "2025-12-03T22:42:31.476684+00:00", "meta": {"OBJECT_NAME": "STARLINK-35868", "OBJECT_ID": "2025-268Y", "EPOCH": "2025-12-03T12:00:02.998944", "MEAN_MOTION": 15.75053408, "ECCENTRICITY": 0.0001886, "INCLINATION": 42.9988, "RA_OF_ASC_NODE": 175.7532, "ARG_OF_PERICENTER": 267.2157, "MEAN_ANOMALY": 179.5494, "EPHEMERIS_TYPE": 0, "CLASSIFICATION_TYPE": "U", "NORAD_CAT_ID": 66579, "ELEMENT_SET_NO": 999, "REV_AT_EPOCH": 318, "BSTAR": -0.013803, "MEAN_MOTION_DOT": -0.01852745, "MEAN_MOTION_DDOT": 0}, "tle": {"line1": "1 66579U 25268Y   25337.50003471 -.01852745  00000+0 -13803-1 0  9995", "line2": "2 66579  42.9988 175.7532 0001886 267.2157 179.5494 15.75053408  3187"}}, "geometry": {"type": "Point", "coordinates": [-85.78857719485235, 42.432616559507295]}}, {"type": "Feature", "properties": {"norad_id": 66580, "name": "STARLINK-35872", "group": "last-30-days", "lat": 42.15074661129815, "lon": -83.22817225682289, "alt_km": 344.4177310424302, "timestamp": "2025-12-03T22:42:31.476693+00:00", "meta": {"OBJECT_NAME": "STARLINK-35872", "OBJECT_ID": "2025-268Z", "EPOCH": "2025-12-03T12:00:02.998944", "MEAN_MOTION": 15.75054095, "ECCENTRICITY": 0.0001828, "INCLINATION": 42.9987, "RA_OF_ASC_NODE": 175.7489, "ARG_OF_PERICENTER": 266.5127, "MEAN_ANOMALY": 182.1678, "EPHEMERIS_TYPE": 0, "CLASSIFICATION_TYPE": "U", "NORAD_CAT_ID": 66580, "ELEMENT_SET_NO": 999, "REV_AT_EPOCH": 318, "BSTAR": -0.013804, "MEAN_MOTION_DOT": -0.01852806, "MEAN_MOTION_DDOT": 0}, "tle": {"line1": "1 66580U 25268Z   25337.50003471 -.01852806  00000+0 -13804-1 0  9996", "line2": "2 66580  42.9987 175.7489 0001828 266.5127 182.1678 15.75054095  3181"}}, "geometry": {"type": "Point", "coordinates": [-83.22817225682289, 42.15074661129815]}}, {"type": "Feature", "properties": {"norad_id": 66581, "name": "STARLINK-35744", "group": "last-30-days", "lat": 41.81137814378507, "lon": -80.68563380538093, "alt_km": 344.4987970503789, "timestamp": "2025-12-03T22:42:31.476701+00:00", "meta": {"OBJECT_NAME": "STARLINK-35744", "OBJECT_ID": "2025-268AA", "EPOCH": "2025-12-03T12:00:02.998944", "MEAN_MOTION": 15.75066756, "ECCENTRICITY": 0.0001817, "INCLINATION": 42.9989, "RA_OF_ASC_NODE": 175.7433, "ARG_OF_PERICENTER": 269.0612, "MEAN_ANOMALY": 181.5385, "EPHEMERIS_TYPE": 0, "CLASSIFICATION_TYPE": "U", "NORAD_CAT_ID": 66581, "ELEMENT_SET_NO": 999, "REV_AT_EPOCH": 313, "BSTAR": -0.013972, "MEAN_MOTION_DOT": -0.01873262, "MEAN_MOTION_DDOT": 0}, "tle": {"line1": "1 66581U 25268AA  25337.50003471 -.01873262  00000+0 -13972-1 0  9992", "line2": "2 66581  42.9989 175.7433 0001817 269.0612 181.5385 15.75066756  3138"}}, "geometry": {"type": "Point", "coordinates": [-80.68563380538093, 41.81137814378507]}}]}